BEIJING 1               
1 28890U 05043A   23095.59808780  .00000677  00000+0  14506-3 0  9991
2 28890  98.1449 218.2137 0014637 343.9827  16.0910 14.61731522929813
HJ-1A                   
1 33320U 08041A   23095.61439860  .00001633  00000+0  23055-3 0  9990
2 33320  97.6515 119.5601 0021030   5.7515 354.3923 14.78313546785548
HJ-1B                   
1 33321U 08041B   23095.14599053  .00002277  00000+0  31517-3 0  9997
2 33321  97.6649 123.2690 0034480  23.6575 336.6209 14.78558259785479
YAOGAN 4                
1 33446U 08061A   23095.38024145  .00002171  00000+0  30701-3 0  9995
2 33446  97.8474  32.1746 0014308 269.3908  90.5663 14.78063294772703
DEIMOS-1                
1 35681U 09041A   23095.52031444  .00001084  00000+0  17830-3 0  9993
2 35681  97.6904 296.1937 0002238  45.4418 314.6983 14.72431474734744
UK-DMC 2                
1 35683U 09041C   23095.52413182  .00001790  00000+0  29268-3 0  9990
2 35683  97.7228 258.2940 0001649  78.9724 281.1671 14.71983553734465
RISAT 1                 
1 38248U 12017A   23095.56783500  .00008663  00000+0  46540-3 0  9993
2 38248  97.5459 109.0784 0003256   4.3080 355.8180 15.15142923602995
DMC3-FM1                
1 40715U 15032A   23095.62482278  .00001401  00000+0  18046-3 0  9993
2 40715  97.8106 341.1299 0004628 295.0512  65.0222 14.82606021416573
DMC3-FM2                
1 40716U 15032B   23095.64717261  .00001395  00000+0  17971-3 0  9997
2 40716  97.8152 341.9518 0006527 295.7595  64.2947 14.82621805416588
DMC3-FM3                
1 40717U 15032C   23095.66932643  .00001402  00000+0  18067-3 0  9999
2 40717  97.8191 343.0143 0008054 291.9119  68.1240 14.82597586416583
